[{"OBJECT_NAME":"OBJECT C","OBJECT_ID":"2023-104C","EPOCH":"2026-03-09T22:39:44.230752","MEAN_MOTION":15.26846312,"ECCENTRICITY":0.00113074,"INCLINATION":97.273,"RA_OF_ASC_NODE":135.3333,"ARG_OF_PERICENTER":3.876,"MEAN_ANOMALY":356.2565,"EPHEMERIS_TYPE":0,"CLASSIFICATION_TYPE":"U","NORAD_CAT_ID":57426,"ELEMENT_SET_NO":999,"REV_AT_EPOCH":14663,"BSTAR":0.00062618506,"MEAN_MOTION_DOT":0.00016495,"MEAN_MOTION_DDOT":0},{"OBJECT_NAME":"STARLINK-32390","OBJECT_ID":"2024-191K","EPOCH":"2026-03-09T22:47:09.125952","MEAN_MOTION":15.27566713,"ECCENTRICITY":9.477e-5,"INCLINATION":43.0013,"RA_OF_ASC_NODE":153.2541,"ARG_OF_PERICENTER":256.0868,"MEAN_ANOMALY":103.9878,"EPHEMERIS_TYPE":0,"CLASSIFICATION_TYPE":"U","NORAD_CAT_ID":61630,"ELEMENT_SET_NO":999,"REV_AT_EPOCH":7757,"BSTAR":-2.3159657e-5,"MEAN_MOTION_DOT":-8.99e-6,"MEAN_MOTION_DDOT":0}]
